[{"OBJECT_NAME":"SWOT","OBJECT_ID":"2022-173A","EPOCH":"2026-03-09T21:08:58.320384","MEAN_MOTION":14.00169571,"ECCENTRICITY":5.296e-5,"INCLINATION":77.6121,"RA_OF_ASC_NODE":169.3626,"ARG_OF_PERICENTER":257.165,"MEAN_ANOMALY":102.9443,"EPHEMERIS_TYPE":0,"CLASSIFICATION_TYPE":"U","NORAD_CAT_ID":54754,"ELEMENT_SET_NO":999,"REV_AT_EPOCH":16525,"BSTAR":8.9304891e-5,"MEAN_MOTION_DOT":1.29e-6,"MEAN_MOTION_DDOT":0},{"OBJECT_NAME":"COSMOS 1275 DEB","OBJECT_ID":"1981-053QD","EPOCH":"2026-03-05T17:19:30.188352","MEAN_MOTION":13.97495211,"ECCENTRICITY":0.00172042,"INCLINATION":82.9849,"RA_OF_ASC_NODE":170.5186,"ARG_OF_PERICENTER":240.7741,"MEAN_ANOMALY":119.1707,"EPHEMERIS_TYPE":0,"CLASSIFICATION_TYPE":"U","NORAD_CAT_ID":42117,"ELEMENT_SET_NO":999,"REV_AT_EPOCH":62456,"BSTAR":0.0011176809,"MEAN_MOTION_DOT":1.589e-5,"MEAN_MOTION_DDOT":0}]
